ONEWEB-0720             
1 55835U 23029AR  25363.36972821  .00000139  00000+0  31393-3 0  9993
2 55835  87.9200 338.7740 0001783  72.1957 287.9370 13.19726151136446
ONEWEB-0537             
1 56046U 23043A   25363.26539316  .00000071  00000+0  15309-3 0  9995
2 56046  87.9041 262.6057 0001408  81.7746 278.3545 13.16593319136607
ONEWEB-0538             
1 56047U 23043B   25363.25905118  .00000067  00000+0  14210-3 0  9997
2 56047  87.9044 262.6102 0001335  68.5433 291.5840 13.16592352136619
ONEWEB-0546             
1 56048U 23043C   25363.09439482  .00000008  00000+0 -13356-4 0  9993
2 56048  87.9054 262.6365 0001373 100.5697 259.5589 13.16592460136583
ONEWEB-0547             
1 56049U 23043D   25363.15907676  .00000050  00000+0  89706-4 0  9994
2 56049  87.9231 277.8875 0001633  69.8254 290.3055 13.21827485135764
ONEWEB-0548             
1 56050U 23043E   25363.19492889  .00000048  00000+0  91660-4 0  9994
2 56050  87.9039 262.6209 0002086  76.9614 283.1750 13.16595557136597
ONEWEB-0549             
1 56051U 23043F   25363.30305844  .00000018  00000+0  10942-4 0  9993
2 56051  87.9224 277.8724 0001555  66.8594 293.2704 13.21827348135782
ONEWEB-0550             
1 56052U 23043G   25363.21420207  .00000022  00000+0  22702-4 0  9997
2 56052  87.9225 277.8851 0001771  79.1431 280.9903 13.21824632135778
ONEWEB-0551             
1 56053U 23043H   25363.31922148 -.00000024  00000+0 -97623-4 0  9998
2 56053  87.9005 293.1318 0001739  68.6465 291.4851 13.15547314134060
ONEWEB-0552             
1 56054U 23043J   25363.20924899  .00000116  00000+0  24946-3 0  9999
2 56054  87.9225 277.8948 0001788  66.2850 293.8471 13.21828482135777
ONEWEB-0553             
1 56055U 23043K   25363.17672206  .00000185  00000+0  44969-3 0  9991
2 56055  87.9045 262.6259 0001568  87.7541 272.3770 13.16592807136606
ONEWEB-0554             
1 56056U 23043L   25363.08806947  .00000058  00000+0  11757-3 0  9991
2 56056  87.9035 262.6560 0001853  77.6616 282.4722 13.16593442136570
ONEWEB-0555             
1 56057U 23043M   25363.27805977  .00000037  00000+0  64338-4 0  9996
2 56057  87.9046 262.6006 0001521  94.3303 265.8002 13.16593257136603
ONEWEB-0557             
1 56058U 23043N   25363.21631491 -.00000015  00000+0 -73532-4 0  9993
2 56058  87.9045 262.6255 0002636  97.6658 262.4773 13.16592735136592
ONEWEB-0558             
1 56059U 23043P   25363.27838558  .00000058  00000+0  10786-3 0  9999
2 56059  87.9221 277.8743 0001402  59.1090 301.0181 13.21825150135792
ONEWEB-0559             
1 56060U 23043Q   25363.26685458  .00000138  00000+0  30225-3 0  9998
2 56060  87.9223 277.8701 0001728  65.5487 294.5827 13.21825947135801
ONEWEB-0566             
1 56061U 23043R   25363.26027397  .00000054  00000+0  10008-3 0  9995
2 56061  87.9228 277.8699 0001618  64.8660 295.2641 13.21826569135786
